[{"OBJECT_NAME":"OBJECT B","OBJECT_ID":"2023-189B","EPOCH":"2026-03-09T23:19:13.152000","MEAN_MOTION":15.72871024,"ECCENTRICITY":0.00049112,"INCLINATION":97.414,"RA_OF_ASC_NODE":101.6861,"ARG_OF_PERICENTER":172.6117,"MEAN_ANOMALY":187.522,"EPHEMERIS_TYPE":0,"CLASSIFICATION_TYPE":"U","NORAD_CAT_ID":58503,"ELEMENT_SET_NO":999,"REV_AT_EPOCH":12706,"BSTAR":0.00074828171,"MEAN_MOTION_DOT":0.00102221,"MEAN_MOTION_DDOT":0},{"OBJECT_NAME":"STARLINK-11556 [DTC]","OBJECT_ID":"2025-019K","EPOCH":"2026-03-09T01:23:15.390528","MEAN_MOTION":15.7088825,"ECCENTRICITY":0.00018841,"INCLINATION":43.001,"RA_OF_ASC_NODE":309.5848,"ARG_OF_PERICENTER":265.0775,"MEAN_ANOMALY":94.9877,"EPHEMERIS_TYPE":0,"CLASSIFICATION_TYPE":"U","NORAD_CAT_ID":62838,"ELEMENT_SET_NO":999,"REV_AT_EPOCH":6378,"BSTAR":0.0013461026,"MEAN_MOTION_DOT":0.00176347,"MEAN_MOTION_DDOT":0}]
